{
    "links": {
        "self": "http://www.neowsapp.com/rest/v1/neo/3170209?api_key=iIulBulltgU6a56xZRHN4H3l9WmuAYTsLGpBGhQ2"
    },
    "id": "3170209",
    "neo_reference_id": "3170209",
    "name": "(2003 YH136)",
    "designation": "2003 YH136",
    "nasa_jpl_url": "http://ssd.jpl.nasa.gov/sbdb.cgi?sstr=3170209",
    "absolute_magnitude_h": 19.4,
    "estimated_diameter": {
        "kilometers": {
            "estimated_diameter_min": 0.3503926411,
            "estimated_diameter_max": 0.7835017643
        },
        "meters": {
            "estimated_diameter_min": 350.3926411083,
            "estimated_diameter_max": 783.5017643338
        },
        "miles": {
            "estimated_diameter_min": 0.2177238258,
            "estimated_diameter_max": 0.4868452748
        },
        "feet": {
            "estimated_diameter_min": 1149.5821926537,
            "estimated_diameter_max": 2570.543928497
        }
    },
    "is_potentially_hazardous_asteroid": true,
    "close_approach_data": [
        {
            "close_approach_date": "2004-01-13",
            "close_approach_date_full": "2004-Jan-13 17:18",
            "epoch_date_close_approach": 1074014280000,
            "relative_velocity": {
                "kilometers_per_second": "42.174250782",
                "kilometers_per_hour": "151827.3028151071",
                "miles_per_hour": "94339.5815741981"
            },
            "miss_distance": {
                "astronomical": "0.2667527252",
                "lunar": "103.7668101028",
                "kilometers": "39905639.506615324",
                "miles": "24796214.5736625112"
            },
            "orbiting_body": "Earth"
        },
        {
            "close_approach_date": "2060-06-24",
            "close_approach_date_full": "2060-Jun-24 13:38",
            "epoch_date_close_approach": 2855309880000,
            "relative_velocity": {
                "kilometers_per_second": "10.5544746352",
                "kilometers_per_hour": "37996.1086868266",
                "miles_per_hour": "23609.3043115451"
            },
            "miss_distance": {
                "astronomical": "1.3400785206",
                "lunar": "521.2905445134",
                "kilometers": "200472892.314511122",
                "miles": "124568078.9856606036"
            },
            "orbiting_body": "Juptr"
        }
    ],
    "orbital_data": {
        "orbit_id": "14",
        "orbit_determination_date": "2017-04-06 09:13:20",
        "first_observation_date": "2003-12-28",
        "last_observation_date": "2004-01-11",
        "data_arc_in_days": 14,
        "observations_used": 35,
        "orbit_uncertainty": "9",
        "minimum_orbit_intersection": ".00816517",
        "jupiter_tisserand_invariant": "2.791",
        "epoch_osculation": "2453008.5",
        "eccentricity": ".8948610991805497",
        "semi_major_axis": "2.349765280155637",
        "inclination": "16.04018460599573",
        "ascending_node_longitude": "306.7133529391914",
        "orbital_period": "1315.634188020418",
        "perihelion_distance": ".2470517387392714",
        "perihelion_argument": "304.1305318600527",
        "aphelion_distance": "4.452478821572002",
        "perihelion_time": "2453052.191293608782",
        "mean_anomaly": "348.0446511329809",
        "mean_motion": ".2736322932909471",
        "equinox": "J2000",
        "orbit_class": {
            "orbit_class_type": "APO",
            "orbit_class_description": "Near-Earth asteroid orbits which cross the Earth’s orbit similar to that of 1862 Apollo",
            "orbit_class_range": "a (semi-major axis) > 1.0 AU; q (perihelion) < 1.017 AU"
        }
    },
    "is_sentry_object": false
}